INTERCOSMOS 24          
1 20261U 89080A   25211.83670395  .00000766  00000+0  21607-3 0  9995
2 20261  82.6021 248.6723 1191054  87.5113 286.1483 12.59105057638879
SL-14 R/B               
1 20262U 89080C   25211.75195142  .00000166  00000+0  48159-4 0  9995
2 20262  82.5966 315.7085 1230561 332.0968  21.9019 12.50321372632412
DELTA 1 R/B             
1 20323U 89089B   25212.53517475  .00000346  00000+0  94307-4 0  9992
2 20323  97.0979  89.9065 0070900 100.9740 259.9445 14.50423750884208
ARIANE 40 R/B           
1 20443U 90005H   25212.19095198  .00000265  00000+0  98155-4 0  9995
2 20443  98.3432 274.0303 0010901 146.0138 214.1751 14.39664219861198
DELTA 2 R/B(1)          
1 20453U 90008B   25211.93806834  .00037021  00000+0  79331-3 0  9991
2 20453  35.6075 163.7320 0131680  34.8614 326.0657 15.34966310891846
COSMOS 2058             
1 20465U 90010A   25211.88066314  .00003185  00000+0  19900-3 0  9992
2 20465  82.4737 265.4802 0008072  26.9850 333.1797 15.09121258908761
SL-14 R/B               
1 20466U 90010B   25212.23924428  .00000418  00000+0  48066-4 0  9994
2 20466  82.5032 115.3379 0018787 313.0431  46.9209 14.83294186916715
SL-14 R/B               
1 20511U 90018B   25211.70692367  .00000377  00000+0  44601-4 0  9993
2 20511  82.5194  70.5517 0017844 101.5693 258.7526 14.81874799889709
HST                     
1 20580U 90037B   25211.87730514  .00006949  00000+0  25657-3 0  9995
2 20580  28.4677 108.6806 0001806 209.3207 150.7286 15.25721594739366
SL-16 R/B               
1 20625U 90046B   25211.93378264  .00000237  00000+0  14693-3 0  9994
2 20625  70.9987  43.6226 0016207 279.9784  79.9509 14.14968907817275
COSMOS 2084             
1 20663U 90055A   25211.90075935  .00003869  00000+0  28529-3 0  9999
2 20663  62.7921  11.0083 0054209 159.1224 201.2107 15.03891441902946
SL-6 R/B(2)             
1 20666U 90055D   25211.93767966  .00002048  00000+0  16907-3 0  9992
2 20666  62.7840 287.1064 0019646 204.6669 155.3492 15.02194079904860
SL-8 R/B                
1 20775U 90078B   25212.13701201  .00024038  00000+0  78167-3 0  9990
2 20775  82.9056  89.0946 0398620  34.3786 328.2536 14.79555194776423
SL-8 R/B                
1 21088U 91006B   25211.87337487  .00000110  00000+0  95550-4 0  9992
2 21088  82.9456 335.0547 0021220 298.0060 175.4313 13.77466874733532
OKEAN-3                 
1 21397U 91039A   25212.44327979  .00002854  00000+0  20986-3 0  9997
2 21397  82.5176 190.8873 0014688  11.3354 348.8200 15.02974561852867
COSMOS 2151             
1 21422U 91042A   25212.21023748  .00001614  00000+0  13087-3 0  9999
2 21422  82.4981 297.0763 0014081  88.8807 271.4030 14.98985546851158
SL-14 R/B               
1 21423U 91042B   25211.84918233  .00000349  00000+0  41480-4 0  9993
2 21423  82.4910  68.1927 0015675 248.5231 111.4311 14.81572990820222
ERS-1                   
1 21574U 91050A   25212.49653577  .00000326  00000+0  11920-3 0  9998
2 21574  98.7927 220.1414 0032891 136.8751 223.5021 14.39223367783891
ARIANE 40 R/B           
1 21610U 91050F   25211.75532904  .00000291  00000+0  10028-3 0  9996
2 21610  98.2365 266.9031 0003822  45.8289 314.3215 14.42664762786993
INTERCOSMOS 25          
1 21819U 91086A   25211.93372569  .00000939  00000+0  18590-3 0  9996
2 21819  82.6025  84.0148 1489604 234.7070 110.5664 12.11131148469832
SL-8 R/B                
1 21876U 92008B   25211.84935454  .00000105  00000+0  92141-4 0  9992
2 21876  82.9244  72.7642 0035577  36.0822 334.9277 13.75939303678910
SL-8 R/B                
1 21938U 92020B   25211.84658193  .00000094  00000+0  81543-4 0  9998
2 21938  82.9332 318.5165 0028817 194.4669 288.3811 13.75517355670631
USA 81                  
1 21949U 92023A   25211.85187838  .00000142  00000+0  45209-4 0  9990
2 21949  85.0048 259.3839 0002391  73.5821 286.5634 14.32256831 63033
COSMOS 2219             
1 22219U 92076A   25212.17698449 -.00000219  00000+0 -90257-4 0  9990
2 22219  71.0610 121.1163 0018110 186.7151 173.3732 14.14035859687397
SL-16 R/B               
1 22220U 92076B   25212.21364028  .00000067  00000+0  57075-4 0  9990
2 22220  71.0007 294.8949 0010730  69.1070 312.1084 14.16810647690792
COSMOS 2221             
1 22236U 92080A   25212.18381869  .00001783  00000+0  16050-3 0  9993
2 22236  82.5061 131.0208 0013538 211.3750 148.6665 14.95019290768730
SL-16 R/B               
1 22285U 92093B   25211.97297784  .00000279  00000+0  16731-3 0  9994
2 22285  71.0216 109.6953 0006308 280.2724  79.7688 14.15401112681788
COSMOS 2228             
1 22286U 92094A   25212.20516886  .00001898  00000+0  16706-3 0  9990
2 22286  82.5169  89.1596 0017808 332.4874  27.5403 14.95874094764005
SL-16 R/B               
1 22566U 93016B   25211.70863243  .00000187  00000+0  12073-3 0  9995
2 22566  71.0091 321.3935 0012126 295.9194  64.0679 14.15261287670763
COSMOS 2242             
1 22626U 93024A   25211.89709495  .00002311  00000+0  20693-3 0  9997
2 22626  82.5200 118.6302 0016066 337.1189  22.9315 14.95323507747233
SL-16 R/B               
1 22803U 93059B   25211.91873786  .00000256  00000+0  15071-3 0  9990
2 22803  70.9907 118.7837 0017590 195.3358 164.7235 14.17182629648119
ARIANE 40 R/B           
1 22830U 93061H   25211.90342172  .00000202  00000+0  90143-4 0  9997
2 22830  98.5245 279.7677 0010090 215.4132 144.6383 14.32683902662341
COSMOS 2278             
1 23087U 94023A   25212.22691344  .00000296  00000+0  17974-3 0  9998
2 23087  71.0526 278.4168 0008773 354.2417   5.8603 14.14306147613744
SL-16 R/B               
1 23088U 94023B   25211.95152462  .00000144  00000+0  98808-4 0  9999
2 23088  70.9984 176.5410 0005460 271.9847  88.0650 14.14970657614728
SL-16 R/B               
1 23343U 94074B   25212.12692492  .00000455  00000+0  68203-4 0  9992
2 23343  97.7368 246.6354 0005761 212.2223 214.0934 14.79083265654700
SL-16 R/B               
1 23405U 94077B   25211.94892580  .00000155  00000+0  10378-3 0  9999
2 23405  70.9825  98.9777 0002138 193.3371 166.7695 14.15521312584850
ARIANE 40+ R/B          
1 23561U 95021B   25212.44717767  .00000266  00000+0  99236-4 0  9995
2 23561  98.4811 281.5465 0007949  86.7459 283.8845 14.39559502587639
SL-16 R/B               
1 23705U 95058B   25212.22758937  .00000135  00000+0  93195-4 0  9998
2 23705  71.0219 285.1987 0010353  98.5984 261.6312 14.15457279536813
SL-16 R/B               
1 24298U 96051B   25211.92651081 -.00000156  00000+0 -57982-4 0  9997
2 24298  70.7649 284.6000 0013200 105.2650 254.9930 14.12404356490336
ORBVIEW 2 (SEASTAR)     
1 24883U 97037A   25212.44562648  .00000309  00000+0  12430-3 0  9996
2 24883  98.8318   6.2582 0002286  20.8101 339.3176 14.35278639476992
SL-16 R/B               
1 25400U 98043G   25212.07997076  .00000070  00000+0  48191-4 0  9995
2 25400  98.7892 159.3214 0008909 301.1338  58.8967 14.25980969407632
SL-16 R/B               
1 25407U 98045B   25211.64064753 -.00000246  00000+0 -10035-3 0  9995
2 25407  71.0115 288.5244 0007740 346.2807  13.8105 14.16146614395667
ISS (ZARYA)             
1 25544U 98067A   25212.49633447  .00014835  00000+0  26505-3 0  9993
2 25544  51.6360  87.4558 0002244 133.0817 290.4711 15.50253490522035
CZ-4B R/B               
1 25732U 99025C   25212.41080869  .00000037  00000+0  39122-4 0  9992
2 25732  98.6968 256.5287 0036054 260.8003 109.4936 14.18200756356942
OKEAN-O                 
1 25860U 99039A   25211.90999317  .00000683  00000+0  97576-4 0  9993
2 25860  97.9803 268.6344 0001239  67.9584 292.1759 14.79862083401587
SL-16 R/B               
1 25861U 99039B   25211.90185596  .00000533  00000+0  75113-4 0  9997
2 25861  98.0329 265.8916 0013586 255.3867 104.5839 14.81330011404023
DELTA 2 R/B             
1 25876U 99041E   25211.93869973  .00002689  00000+0  47247-3 0  9997
2 25876  51.7609 106.3115 0506943  54.3931 310.3146 14.10890068331717
HELIOS 1B               
1 25977U 99064A   25212.21305876  .00001431  00000+0  16798-3 0  9994
2 25977  98.1889 102.9048 0002467  78.2850 281.8642 14.86593962383646
TERRA                   
1 25994U 99068A   25212.49429595  .00000465  00000+0  10443-3 0  9999
2 25994  97.9952 268.9457 0003060 137.1133 335.7450 14.60748170362906
SL-16 R/B               
1 26070U 00006B   25211.95189847  .00000169  00000+0  11018-3 0  9992
2 26070  71.0000 204.0550 0015955 166.5805 193.5746 14.15778768317175
TITAN 4B R/B            
1 26474U 00047B   25211.77108517  .00003080  00000+0  20635-3 0  9990
2 26474  67.9907 303.4812 0047958 288.3545  71.2390 15.07432825359446
ENVISAT                 
1 27386U 02009A   25212.50451998  .00000108  00000+0  48826-4 0  9990
2 27386  98.3362 166.8277 0001271  82.9476  29.0107 14.38931998227435
IDEFIX & ARIANE 42P R/B 
1 27422U 02021B   25212.53286218  .00000268  00000+0  11883-3 0  9998
2 27422  98.5609 149.1243 0012874 115.7632 244.4881 14.30817183210490
AQUA                    
1 27424U 02022A   25212.51796241  .00000901  00000+0  19209-3 0  9995
2 27424  98.3805 171.4349 0000728  86.8119  27.5566 14.61375722236463
CZ-4B R/B               
1 27432U 02024C   25212.17909560  .00000027  00000+0  37191-4 0  9998
2 27432  98.9205 261.2545 0049185 292.2639 136.0213 14.14493440198006
MIDORI II (ADEOS-II)    
1 27597U 02056A   25212.50224681  .00000288  00000+0  13123-3 0  9993
2 27597  98.7399 164.9365 0000435  29.0736 331.0470 14.29077134178686
H-2A R/B                
1 27601U 02056E   25211.90686187  .00000323  00000+0  12780-3 0  9993
2 27601  98.2823 176.2106 0071698 102.3725 317.2738 14.33534258182318
CZ-4B R/B               
1 28059U 03049C   25212.20387937  .00000332  00000+0  88168-4 0  9993
2 28059  98.6624 193.7898 0048246 186.2712 173.7886 14.54717851154370
CZ-2C R/B               
1 28222U 04012C   25211.69188758  .00021598  00000+0  43960-3 0  9995
2 28222  97.7629 254.1266 0022876  43.9348 316.3713 15.46010549169803
